[{"OBJECT_NAME":"TIANHUI 5B","OBJECT_ID":"2023-168C","EPOCH":"2026-03-09T12:35:57.993792","MEAN_MOTION":14.87579039,"ECCENTRICITY":0.0002138,"INCLINATION":97.8217,"RA_OF_ASC_NODE":77.3226,"ARG_OF_PERICENTER":97.0143,"MEAN_ANOMALY":263.1317,"EPHEMERIS_TYPE":0,"CLASSIFICATION_TYPE":"U","NORAD_CAT_ID":58201,"ELEMENT_SET_NO":999,"REV_AT_EPOCH":12778,"BSTAR":7.7374e-5,"MEAN_MOTION_DOT":6.49e-6,"MEAN_MOTION_DDOT":0},{"OBJECT_NAME":"SL-8 DEB","OBJECT_ID":"1978-105C","EPOCH":"2026-03-09T17:24:10.488960","MEAN_MOTION":14.87909662,"ECCENTRICITY":0.00081973,"INCLINATION":74.0198,"RA_OF_ASC_NODE":317.1949,"ARG_OF_PERICENTER":182.704,"MEAN_ANOMALY":177.4098,"EPHEMERIS_TYPE":0,"CLASSIFICATION_TYPE":"U","NORAD_CAT_ID":11113,"ELEMENT_SET_NO":999,"REV_AT_EPOCH":50512,"BSTAR":0.00066990797,"MEAN_MOTION_DOT":6.108e-5,"MEAN_MOTION_DDOT":0}]
